[{"OBJECT_NAME":"JILIN-1 05","OBJECT_ID":"2017-074B","EPOCH":"2026-03-09T21:56:30.612480","MEAN_MOTION":15.3245271,"ECCENTRICITY":0.00045948,"INCLINATION":97.4781,"RA_OF_ASC_NODE":173.8936,"ARG_OF_PERICENTER":206.4038,"MEAN_ANOMALY":153.6971,"EPHEMERIS_TYPE":0,"CLASSIFICATION_TYPE":"U","NORAD_CAT_ID":43023,"ELEMENT_SET_NO":999,"REV_AT_EPOCH":45879,"BSTAR":0.00026108793,"MEAN_MOTION_DOT":8.104e-5,"MEAN_MOTION_DDOT":0},{"OBJECT_NAME":"STARLINK-32841","OBJECT_ID":"2025-022M","EPOCH":"2026-03-09T10:51:21.439008","MEAN_MOTION":15.30186569,"ECCENTRICITY":0.00013464,"INCLINATION":53.1577,"RA_OF_ASC_NODE":130.728,"ARG_OF_PERICENTER":81.5163,"MEAN_ANOMALY":278.5991,"EPHEMERIS_TYPE":0,"CLASSIFICATION_TYPE":"U","NORAD_CAT_ID":62865,"ELEMENT_SET_NO":999,"REV_AT_EPOCH":6185,"BSTAR":0.0011668282,"MEAN_MOTION_DOT":0.00034344,"MEAN_MOTION_DDOT":0}]
